{
  "norad_id": 67173,
  "name": "STARLINK-36183",
  "history": [
    {
      "epoch": "2026-03-28T17:20:42.411840Z",
      "apogee_km": 483.685560805754,
      "perigee_km": 482.0677337877205,
      "latitude_deg": 2.811068728933124e-05,
      "longitude_deg": 117.11253958309167,
      "height_km": 482.6747325046425,
      "semi_major_axis_km": 6861.013647296737,
      "eccentricity": 0.0001179,
      "inclination_deg": 43.0016,
      "raan_deg": 203.4283,
      "arg_perigee_deg": 268.4838,
      "mean_anomaly_deg": 91.5879,
      "mean_motion_rev_day": 15.27637593
    }
  ]
}