{"fetched_at":"2026-03-30T13:17:50Z","count":15418,"tles":[{"name":"STARLINK-36183","line1":"1 67173U 25303L   26087.72271310  .00028502  00000+0  10395-2 0  9999","line2":"2 67173  43.0016 203.4283 0001179 268.4838  91.5879 15.27637593 15642","category":"Starlink"}]}